     3.02           N: GNSS NAV DATA    M: Mixed            RINEX VERSION / TYPE
RTKCONV 2.4.2                           20171226 041442 UTC PGM / RUN BY / DATE 
log: C:\Users\nobu\2017\collaboration\パナソニック\1226\re  COMMENT             
format: u-blox                                              COMMENT             
                                                            END OF HEADER
J 1 2017 12 26  4  0  0 -.188568606973E-03  .196678229258E-10  .000000000000E+00
      .205000000000E+03 -.480218750000E+03  .271689888403E-08 -.231637673471E+01
     -.154022127390E-04  .750614308054E-01  .175070017576E-04  .649339612770E+04
      .187200000000E+06  .190548598766E-05  .111488472605E+01  .620260834694E-06
      .714597571663E+00 -.449062500000E+03 -.156638582482E+01 -.305834167792E-08
     -.558951854017E-09  .200000000000E+01  .198100000000E+04  .100000000000E+01
      .340000000000E+01  .000000000000E+00 -.558793544769E-08  .973000000000E+03
      .185016000000E+06  .400000000000E+01
R23 2017 12 26  3 15  0  .126473605633E-03  .181898940355E-11  .185010000000E+06
      .258807519531E+04  .904989242554E-01  .186264514923E-08  .000000000000E+00
      .233968569336E+05  .135886764526E+01  .931322574615E-09  .300000000000E+01
      .982277099609E+04 -.325933456421E+01 -.931322574615E-09  .000000000000E+00
R 6 2017 12 26  3 15  0  .123917125165E-03  .000000000000E+00  .185010000000E+06
     -.219732265625E+05 -.474303245544E+00 -.279396772385E-08  .000000000000E+00
     -.124407460938E+05 -.154034614563E+00 -.186264514923E-08 -.400000000000E+01
      .349152539062E+04 -.351801204681E+01 -.931322574615E-09  .000000000000E+00
R10 2017 12 26  3 45  0  .145006924868E-04  .909494701773E-12  .185400000000E+06
     -.219786704102E+05  .120086574554E+01 -.931322574615E-09  .000000000000E+00
      .892359960938E+04 -.530607223511E+00 -.931322574615E-09 -.700000000000E+01
      .946368505859E+04  .327644920349E+01 -.186264514923E-08  .000000000000E+00
R 9 2017 12 26  3 45  0  .481754541397E-04  .000000000000E+00  .185400000000E+06
     -.129455019531E+05  .252059364319E+01  .000000000000E+00  .000000000000E+00
     -.408064550781E+04 -.154232406616E+01 -.931322574615E-09 -.200000000000E+01
      .216257880859E+05  .121306133270E+01 -.279396772385E-08  .000000000000E+00
R 7 2017 12 26  3 45  0 -.257706269622E-04 -.909494701773E-12  .185400000000E+06
     -.212178500977E+05 -.173683261871E+01 -.931322574615E-09  .000000000000E+00
     -.330481445312E+04 -.733774185181E+00 -.186264514923E-08  .500000000000E+01
      .137667470703E+05 -.286120605469E+01 -.186264514923E-08  .000000000000E+00
R 8 2017 12 26  3 45  0 -.270316377282E-04  .000000000000E+00  .185400000000E+06
     -.881324316406E+04 -.277960681915E+01  .000000000000E+00  .000000000000E+00
      .770421923828E+04 -.136562156677E+01 -.931322574615E-09  .600000000000E+01
      .227060268555E+05 -.616742134094E+00 -.279396772385E-08  .000000000000E+00
R23 2017 12 26  3 45  0  .126477330923E-03  .181898940355E-11  .185400000000E+06
      .292446582031E+04  .243219375610E+00  .186264514923E-08  .000000000000E+00
      .250749223633E+05  .489517211914E+00  .000000000000E+00  .300000000000E+01
      .365195019531E+04 -.355259799957E+01 -.931322574615E-09  .000000000000E+00
R11 2017 12 26  3 45  0 -.178096815944E-04  .000000000000E+00  .185400000000E+06
     -.178784008789E+05 -.881152153015E+00  .000000000000E+00  .000000000000E+00
      .161879174805E+05  .746395111084E+00  .000000000000E+00  .000000000000E+00
     -.834648779297E+04  .332413673401E+01  .000000000000E+00  .000000000000E+00
R24 2017 12 26  3 45  0 -.160254538059E-03  .000000000000E+00  .185400000000E+06
      .889359375000E+04  .263458251953E+00  .186264514923E-08  .000000000000E+00
      .159850092773E+05  .242884254456E+01  .000000000000E+00  .200000000000E+01
      .177629604492E+05 -.231393909454E+01 -.186264514923E-08  .000000000000E+00
R 1 2017 12 26  3 45  0  .198055058718E-04  .000000000000E+00  .185400000000E+06
      .745939501953E+04 -.240540885925E+01  .186264514923E-08  .000000000000E+00
      .142723720703E+05 -.124583816528E+01  .000000000000E+00  .100000000000E+01
      .197703364258E+05  .180765628815E+01 -.186264514923E-08  .000000000000E+00
R22 2017 12 26  3 45  0 -.486988574266E-05 -.181898940355E-11  .185400000000E+06
     -.570455859375E+04  .802974700928E-01  .000000000000E+00  .000000000000E+00
      .201199262695E+05 -.201629543304E+01  .000000000000E+00 -.300000000000E+01
     -.146886879883E+05 -.277999496460E+01  .000000000000E+00  .000000000000E+00
R 6 2017 12 26  3 45  0  .123918056488E-03  .000000000000E+00  .185520000000E+06
     -.221516367188E+05  .296540260315E+00 -.279396772385E-08  .000000000000E+00
     -.122858740234E+05  .291360855103E+00 -.186264514923E-08 -.400000000000E+01
     -.289417724609E+04 -.353104877472E+01  .000000000000E+00  .000000000000E+00
G20 2017 12 26  6  0  0  .496579334140E-03  .102318153949E-11  .000000000000E+00
      .150000000000E+02 -.695000000000E+02  .536915221817E-08  .162017221554E+01
     -.375695526600E-05  .461627810728E-02  .844709575176E-05  .515376741791E+04
      .194400000000E+06  .113621354103E-06  .946464146316E+00 -.894069671631E-07
      .927555979881E+00  .199156250000E+03  .175262851670E+01 -.847321008607E-08
     -.239295681911E-09  .100000000000E+01  .198100000000E+04  .000000000000E+00
      .240000000000E+01  .000000000000E+00 -.838190317154E-08  .150000000000E+02
      .187206000000E+06  .400000000000E+01
G15 2017 12 26  5 59 44 -.357415527105E-03  .000000000000E+00  .000000000000E+00
      .170000000000E+02  .339375000000E+02  .523450375238E-08  .187030902780E+01
      .175461173058E-05  .100718018366E-01  .103078782558E-04  .515366920090E+04
      .194384000000E+06 -.175088644028E-06  .201900448474E+01  .260770320892E-07
      .928269247534E+00  .165281250000E+03  .653034489828E+00 -.839177812267E-08
      .133219834855E-09  .100000000000E+01  .198100000000E+04  .000000000000E+00
      .240000000000E+01  .000000000000E+00 -.107102096081E-07  .170000000000E+02
      .187206000000E+06  .400000000000E+01
G24 2017 12 26  6  0  0 -.439733266830E-04 -.568434188608E-12  .000000000000E+00
      .840000000000E+02  .390000000000E+02  .519878797896E-08  .806111654129E+00
      .198930501938E-05  .655111286324E-02  .542774796486E-05  .515366053581E+04
      .194400000000E+06 -.353902578354E-07  .310680380920E+01  .931322574615E-07
      .943456279952E+00  .265718750000E+03  .496617002252E+00 -.854857036798E-08
     -.778603860547E-10  .100000000000E+01  .198100000000E+04  .000000000000E+00
      .240000000000E+01  .000000000000E+00  .279396772385E-08  .840000000000E+02
      .187206000000E+06  .400000000000E+01
G13 2017 12 26  6  0  0 -.950023531914E-04 -.227373675443E-12  .000000000000E+00
      .150000000000E+02  .511250000000E+02  .437339645523E-08  .123526181210E+01
      .264681875706E-05  .368722644635E-02  .943802297115E-05  .515365952492E+04
      .194400000000E+06  .204890966415E-07  .221533916527E+01 -.447034835815E-07
      .968683981850E+00  .200843750000E+03  .165167924753E+01 -.800176187693E-08
      .235366946835E-09  .100000000000E+01  .198100000000E+04  .000000000000E+00
      .240000000000E+01  .000000000000E+00 -.116415321827E-07  .150000000000E+02
      .187206000000E+06  .400000000000E+01
G 5 2017 12 26  6  0  0 -.187200494111E-04  .102318153949E-11  .000000000000E+00
      .270000000000E+02 -.561250000000E+02  .480662878681E-08 -.280267330488E+01
     -.292435288429E-05  .528029596899E-02  .943802297115E-05  .515361564445E+04
      .194400000000E+06  .428408384323E-07  .103114197603E+01 -.521540641785E-07
      .947178672079E+00  .190593750000E+03  .634447378320E+00 -.812640992616E-08
     -.167149819604E-09  .100000000000E+01  .198100000000E+04  .000000000000E+00
      .240000000000E+01  .000000000000E+00 -.107102096081E-07  .270000000000E+02
      .187206000000E+06  .400000000000E+01
G21 2017 12 26  6  0  0 -.448639038950E-03  .397903932026E-11  .000000000000E+00
      .240000000000E+02 -.137812500000E+02  .529629204039E-08 -.114517923887E+01
     -.381842255592E-06  .241706940578E-01  .536441802979E-05  .515378983879E+04
      .194400000000E+06 -.357627868652E-06 -.415274415103E-01  .501051545143E-06
      .942408960807E+00  .268625000000E+03 -.161452193731E+01 -.881643866863E-08
      .467876631797E-10  .100000000000E+01  .198100000000E+04  .000000000000E+00
      .240000000000E+01  .000000000000E+00 -.977888703346E-08  .240000000000E+02
      .187206000000E+06  .400000000000E+01
G18 2017 12 26  6  0  0  .633542425930E-03  .000000000000E+00  .000000000000E+00
      .102000000000E+03 -.631875000000E+02  .516378652101E-08 -.205462104378E+01
     -.320374965668E-05  .182766868966E-01  .823847949505E-05  .515364530182E+04
      .194400000000E+06  .393018126488E-06  .997517086316E+00 -.223517417908E-07
      .926109554740E+00  .198906250000E+03 -.176477372989E+01 -.809426573009E-08
     -.164292557730E-09  .100000000000E+01  .198100000000E+04  .000000000000E+00
      .240000000000E+01  .000000000000E+00 -.111758708954E-07  .102000000000E+03
      .187206000000E+06  .400000000000E+01
G28 2017 12 26  6  0  0  .674235168844E-03  .329691829393E-11  .000000000000E+00
      .270000000000E+02  .621875000000E+01  .382765943738E-08 -.266728445862E+01
      .307336449623E-06  .199699009536E-01  .808387994766E-05  .515367043686E+04
      .194400000000E+06  .249594449997E-06 -.200706674405E+01  .199303030968E-06
      .987076888057E+00  .231750000000E+03 -.153844412900E+01 -.745566770134E-08
     -.814319633967E-10  .100000000000E+01  .198100000000E+04  .000000000000E+00
      .240000000000E+01  .000000000000E+00 -.111758708954E-07  .270000000000E+02
      .187206000000E+06  .400000000000E+01
